[{"OBJECT_NAME":"TIANQI-18","OBJECT_ID":"2025-105C","EPOCH":"2026-03-09T22:12:26.656128","MEAN_MOTION":13.99097587,"ECCENTRICITY":0.00119546,"INCLINATION":44.984,"RA_OF_ASC_NODE":103.8187,"ARG_OF_PERICENTER":278.1183,"MEAN_ANOMALY":81.8293,"EPHEMERIS_TYPE":0,"CLASSIFICATION_TYPE":"U","NORAD_CAT_ID":64060,"ELEMENT_SET_NO":999,"REV_AT_EPOCH":4129,"BSTAR":0.00015710679,"MEAN_MOTION_DOT":1.01e-6,"MEAN_MOTION_DDOT":0},{"OBJECT_NAME":"FENGYUN 1C DEB","OBJECT_ID":"1999-025CXG","EPOCH":"2026-03-02T05:51:18.882720","MEAN_MOTION":13.66195497,"ECCENTRICITY":0.02280656,"INCLINATION":100.8155,"RA_OF_ASC_NODE":218.5862,"ARG_OF_PERICENTER":279.3903,"MEAN_ANOMALY":78.152,"EPHEMERIS_TYPE":0,"CLASSIFICATION_TYPE":"U","NORAD_CAT_ID":32315,"ELEMENT_SET_NO":999,"REV_AT_EPOCH":62174,"BSTAR":0.00020558485,"MEAN_MOTION_DOT":1.47e-6,"MEAN_MOTION_DDOT":0}]
